STARLINK-4424
1 53681U 22105AK  26090.90665651  .00068411  00000+0  40804-2 0  9995
2 53681  97.6024 332.1528 0001701  68.6471 291.4940 15.10857791196580
